NORAD_CAT_ID,OBJECT_NAME,OBJECT_TYPE,EPOCH,MEAN_MOTION,ECCENTRICITY,INCLINATION,RA_OF_ASC_NODE,ARG_OF_PERICENTER,MEAN_ANOMALY,BSTAR,MEAN_MOTION_DOT,MEAN_MOTION_DDOT,TLE_LINE0,TLE_LINE1,TLE_LINE2,SEMIMAJOR_AXIS,PERIOD,APOGEE,PERIGEE,DECAYED
54183.0,STARLINK-5239,PAYLOAD,2024-03-04 02:51:40,15.10489261,0.0001309,53.2171,66.0678,86.9726,273.1417,0.00011828,1.678e-05,0.0,0 STARLINK-5239,1 54183U 22141AC  24064.11921852  .00001678  00000-0  11828-3 0  9991,2 54183  53.2171  66.0678 0001309  86.9726 273.1417 15.10489261 75044,6912.844,95.333,535.614,533.804,0.0
54183.0,STARLINK-5239,PAYLOAD,2024-03-04 12:23:21,15.10501067,0.0001359,53.2157,64.2804,95.4913,264.6235,0.00069523,0.00011308,0.0,0 STARLINK-5239,1 54183U 22141AC  24064.51622543  .00011308  00000-0  69523-3 0  9996,2 54183  53.2157  64.2804 0001359  95.4913 264.6235 15.10501067 74879,6912.808,95.333,535.612,533.733,0.0
54183.0,STARLINK-5239,PAYLOAD,2024-03-04 20:19:47,15.10459301,0.0001413,53.2157,62.7913,82.3469,277.7684,-0.00037623,-6.547e-05,0.0,0 STARLINK-5239,1 54183U 22141AC  24064.84708062 -.00006547  00000-0 -37623-3 0  9990,2 54183  53.2157  62.7913 0001413  82.3469 277.7684 15.10459301 75153,6912.935,95.335,535.777,533.823,0.0
54183.0,STARLINK-5239,PAYLOAD,2024-03-04 21:55:04,15.10459551,0.0001449,53.2156,62.4936,82.5012,277.6146,-0.00051523,-8.856e-05,0.0,0 STARLINK-5239,1 54183U 22141AC  24064.91324740 -.00008856  00000-0 -51523-3 0  9995,2 54183  53.2156  62.4936 0001449  82.5012 277.6146 15.10459551 74933,6912.934,95.335,535.801,533.798,0.0
54183.0,STARLINK-5239,PAYLOAD,2024-03-05 12:12:37,15.1047117,0.0001497,53.2156,59.8135,79.9647,280.1515,0.00065309,0.00010595,0.0,0 STARLINK-5239,1 54183U 22141AC  24065.50876695  .00010595  00000-0  65309-3 0  9990,2 54183  53.2156  59.8135 0001497  79.9647 280.1515 15.10471170 75022,6912.899,95.334,535.799,533.729,0.0
54183.0,STARLINK-5239,PAYLOAD,2024-03-05 20:09:02,15.10479875,0.0001522,53.2156,58.3246,77.8353,282.281,0.0011357,0.00018666,0.0,0 STARLINK-5239,1 54183U 22141AC  24065.83960975  .00018666  00000-0  11357-2 0  9991,2 54183  53.2156  58.3246 0001522  77.8353 282.2810 15.10479875 75301,6912.872,95.334,535.79,533.685,0.0
54183.0,STARLINK-5239,PAYLOAD,2024-03-06 10:26:33,15.10510776,0.0001578,53.2157,55.6447,77.4107,282.7062,0.0013979,0.00023077,0.0,0 STARLINK-5239,1 54183U 22141AC  24066.43511470  .00023077  00000-0  13979-2 0  9994,2 54183  53.2157  55.6447 0001578  77.4107 282.7062 15.10510776 75163,6912.778,95.332,535.734,533.552,0.0
54183.0,STARLINK-5239,PAYLOAD,2024-03-06 19:58:15,15.10487488,0.0001466,53.216,53.8574,94.3432,265.7729,0.00057729,9.334e-05,0.0,0 STARLINK-5239,1 54183U 22141AC  24066.83212531  .00009334  00000-0  57729-3 0  9996,2 54183  53.2160  53.8574 0001466  94.3432 265.7729 15.10487488 75459,6912.849,95.333,535.728,533.701,0.0
54183.0,STARLINK-5239,PAYLOAD,2024-03-07 10:15:48,15.10487131,0.000143,53.2162,51.1773,87.6622,272.4534,0.0011616,0.00019103,0.0,0 STARLINK-5239,1 54183U 22141AC  24067.42763893  .00019103  00000-0  11616-2 0  9993,2 54183  53.2162  51.1773 0001430  87.6622 272.4534 15.10487131 75319,6912.85,95.333,535.704,533.727,0.0
54183.0,STARLINK-5239,PAYLOAD,2024-03-08 02:08:37,15.10484048,0.0001449,53.2164,48.1988,96.2039,263.9119,0.00079793,0.00013018,0.0,0 STARLINK-5239,1 54183U 22141AC  24068.08932319  .00013018  00000-0  79793-3 0  9997,2 54183  53.2164  48.1988 0001449  96.2039 263.9119 15.10484048 75647,6912.86,95.334,535.726,533.723,0.0
54183.0,STARLINK-5239,PAYLOAD,2024-03-08 05:19:11,15.10486603,0.0001432,53.2165,47.6032,89.8859,270.2298,0.0006727,0.00010927,0.0,0 STARLINK-5239,1 54183U 22141AC  24068.22165854  .00010927  00000-0  67270-3 0  9998,2 54183  53.2165  47.6032 0001432  89.8859 270.2298 15.10486603 75437,6912.852,95.334,535.707,533.727,0.0
54183.0,STARLINK-5239,PAYLOAD,2024-03-08 22:47:17,15.10482098,0.0001499,53.2168,44.3272,96.4233,263.6931,0.00055025,8.881e-05,0.0,0 STARLINK-5239,1 54183U 22141AC  24068.94951013  .00008881  00000-0  55025-3 0  9998,2 54183  53.2168  44.3272 0001499  96.4233 263.6931 15.10482098 75549,6912.866,95.334,535.767,533.694,0.0
54183.0,STARLINK-5239,PAYLOAD,2024-03-09 03:33:08,15.1048019,0.0001654,53.217,43.4338,103.6487,256.469,0.00040374,6.436e-05,0.0,0 STARLINK-5239,1 54183U 22141AC  24069.14801475  .00006436  00000-0  40374-3 0  9992,2 54183  53.2170  43.4338 0001654 103.6487 256.4690 15.10480190 75802,6912.872,95.334,535.88,533.593,0.0
54183.0,STARLINK-5239,PAYLOAD,2024-03-09 05:08:25,15.10486222,0.0001494,53.217,43.136,96.7174,263.3989,0.0005182,8.347e-05,0.0,0 STARLINK-5239,1 54183U 22141AC  24069.21418237  .00008347  00000-0  51820-3 0  9991,2 54183  53.2170  43.1360 0001494  96.7174 263.3989 15.10486222 75586,6912.853,95.334,535.751,533.685,0.0
54183.0,STARLINK-5239,PAYLOAD,2024-03-09 22:36:31,15.10481287,0.0001447,53.2171,39.8616,96.5179,263.5979,0.00019831,3.011e-05,0.0,0 STARLINK-5239,1 54183U 22141AC  24069.94203209  .00003011  00000-0  19831-3 0  9991,2 54183  53.2171  39.8616 0001447  96.5179 263.5979 15.10481287 75693,6912.868,95.334,535.733,533.733,0.0
54183.0,STARLINK-5239,PAYLOAD,2024-03-10 03:22:22,15.10485129,0.0001445,53.2174,38.9683,95.4569,264.6588,0.00025484,3.953e-05,0.0,0 STARLINK-5239,1 54183U 22141AC  24070.14053479  .00003953  00000-0  25484-3 0  9993,2 54183  53.2174  38.9683 0001445  95.4569 264.6588 15.10485129 75955,6912.856,95.334,535.72,533.723,0.0
54183.0,STARLINK-5239,PAYLOAD,2024-03-10 14:29:20,15.10485396,0.0001335,53.2172,36.8803,72.0262,288.0876,0.00018388,2.771e-05,0.0,0 STARLINK-5239,1 54183U 22141AC  24070.60371042  .00002771  00000-0  18388-3 0  9995,2 54183  53.2172  36.8803 0001335  72.0262 288.0876 15.10485396 75791,6912.856,95.334,535.644,533.798,0.0
54183.0,STARLINK-5239,PAYLOAD,2024-03-11 04:46:53,15.10473605,0.0001415,53.2185,34.2053,94.6385,265.477,-1.2436e-05,-5e-06,0.0,0 STARLINK-5239,1 54183U 22141AC  24071.19922899 -.00000500  00000-0 -12436-4 0  9991,2 54183  53.2185  34.2053 0001415  94.6385 265.4770 15.10473605 76118,6912.892,95.334,535.735,533.778,0.0
54183.0,STARLINK-5239,PAYLOAD,2024-03-11 14:18:34,15.10484703,0.0001508,53.2193,32.4176,92.1503,267.9663,0.00020705,3.157e-05,0.0,0 STARLINK-5239,1 54183U 22141AC  24071.59623419  .00003157  00000-0  20705-3 0  9997,2 54183  53.2193  32.4176 0001508  92.1503 267.9663 15.10484703 75940,6912.858,95.334,535.765,533.68,0.0
54183.0,STARLINK-5239,PAYLOAD,2024-03-12 04:36:06,15.10463667,0.0001481,53.2171,29.7339,80.8818,279.2342,-0.00057353,-9.824e-05,0.0,0 STARLINK-5239,1 54183U 22141AC  24072.19174355 -.00009824  00000-0 -57353-3 0  9992,2 54183  53.2171  29.7339 0001481  80.8818 279.2342 15.10463667 76261,6912.922,95.335,535.811,533.763,0.0
54183.0,STARLINK-5239,PAYLOAD,2024-03-12 14:07:48,15.10466989,0.0001359,53.2173,27.9466,85.292,274.8228,-0.00021679,-3.899e-05,0.0,0 STARLINK-5239,1 54183U 22141AC  24072.58875589 -.00003899  00000-0 -21679-3 0  9990,2 54183  53.2173  27.9466 0001359  85.2920 274.8228 15.10466989 76096,6912.912,95.335,535.716,533.837,0.0
54183.0,STARLINK-5239,PAYLOAD,2024-03-13 04:25:20,15.10478094,0.0001462,53.218,25.2673,87.7172,272.3988,3.0575e-05,2.16e-06,0.0,0 STARLINK-5239,1 54183U 22141AC  24073.18426833  .00000216  00000-0  30575-4 0  9995,2 54183  53.2180  25.2673 0001462  87.7172 272.3988 15.10478094 76418,6912.878,95.334,535.754,533.732,0.0
54183.0,STARLINK-5239,PAYLOAD,2024-03-13 13:57:02,15.10469775,0.0001548,53.2167,23.4797,91.2767,268.8403,0.00030903,4.855e-05,0.0,0 STARLINK-5239,1 54183U 22141AC  24073.58128354  .00004855  00000-0  30903-3 0  9993,2 54183  53.2167  23.4797 0001548  91.2767 268.8403 15.10469775 76244,6912.903,95.335,535.838,533.698,0.0
54183.0,STARLINK-5239,PAYLOAD,2024-03-14 05:49:52,15.10482555,0.0001635,53.2171,20.5005,97.3071,262.8108,0.00055549,8.968e-05,0.0,0 STARLINK-5239,1 54183U 22141AC  24074.24296491  .00008968  00000-0  55549-3 0  9997,2 54183  53.2171  20.5005 0001635  97.3071 262.8108 15.10482555 76349,6912.864,95.334,535.86,533.599,0.0
54183.0,STARLINK-5239,PAYLOAD,2024-03-14 20:07:24,15.10481428,0.0002252,53.2181,17.8218,113.1122,247.0108,0.00031641,4.979e-05,0.0,0 STARLINK-5239,1 54183U 22141AC  24074.83847938  .00004979  00000-0  31641-3 0  9995,2 54183  53.2181  17.8218 0002252 113.1122 247.0108 15.10481428 76663,6912.868,95.334,536.29,533.176,0.0
54183.0,STARLINK-5239,PAYLOAD,2024-03-15 02:28:32,15.10486474,0.0001593,53.2175,16.6334,105.332,254.7849,0.00049307,7.927e-05,0.0,0 STARLINK-5239,1 54183U 22141AC  24075.10315197  .00007927  00000-0  49307-3 0  9997,2 54183  53.2175  16.6334 0001593 105.3320 254.7849 15.10486474 76474,6912.852,95.334,535.819,533.616,0.0
54183.0,STARLINK-5239,PAYLOAD,2024-03-16 00:42:29,15.10482995,0.0001878,53.2182,12.4651,115.4012,244.7175,0.00025233,3.911e-05,0.0,0 STARLINK-5239,1 54183U 22141AC  24076.02950482  .00003911  00000-0  25233-3 0  9992,2 54183  53.2182  12.4651 0001878 115.4012 244.7175 15.10482995 76840,6912.863,95.334,536.026,533.43,0.0
54183.0,STARLINK-5239,PAYLOAD,2024-03-16 05:28:19,15.10487323,0.0001855,53.218,11.5708,116.7252,243.3931,0.0002463,3.811e-05,0.0,0 STARLINK-5239,1 54183U 22141AC  24076.22800664  .00003811  00000-0  24630-3 0  9999,2 54183  53.2180  11.5708 0001855 116.7252 243.3931 15.10487323 76649,6912.85,95.333,535.997,533.432,0.0
54183.0,STARLINK-5239,PAYLOAD,2024-03-16 22:56:26,15.1047724,0.0002355,53.2176,8.2879,135.6532,224.465,4.769e-05,5.01e-06,0.0,0 STARLINK-5239,1 54183U 22141AC  24076.95585702  .00000501  00000-0  47690-4 0  9997,2 54183  53.2176   8.2879 0002355 135.6532 224.4650 15.10477240 76750,6912.881,95.334,536.374,533.118,0.0
54183.0,STARLINK-5239,PAYLOAD,2024-03-17 02:07:00,15.10475582,0.0001639,53.2187,7.7012,103.4879,256.6297,8.6361e-05,1.145e-05,0.0,0 STARLINK-5239,1 54183U 22141AC  24077.08820000  .00001145  00000-0  86361-4 0  9998,2 54183  53.2187   7.7012 0001639 103.4879 256.6297 15.10475582 77006,6912.886,95.334,535.884,533.618,0.0
